{"type":"FeatureCollection","name":"DPW FMS UAE offline reference map","features":[
{"type":"Feature","properties":{"name":"United Arab Emirates","kind":"country"},"geometry":{"type":"Polygon","coordinates":[[[51.55,24.25],[52.6,22.63],[55.2,22.7],[56.42,24.0],[56.37,25.65],[55.8,26.05],[54.5,24.55],[53.1,24.3],[51.55,24.25]]]}},
{"type":"Feature","properties":{"name":"E11 logistics corridor","kind":"motorway"},"geometry":{"type":"LineString","coordinates":[[54.37,24.46],[54.65,24.72],[55.03,24.99],[55.28,25.18],[55.42,25.36],[55.72,25.72]]}},
{"type":"Feature","properties":{"name":"E611 Emirates Road","kind":"motorway"},"geometry":{"type":"LineString","coordinates":[[54.72,24.72],[55.14,25.02],[55.45,25.29],[55.8,25.65]]}},
{"type":"Feature","properties":{"name":"E44 Dubai–Hatta","kind":"primary"},"geometry":{"type":"LineString","coordinates":[[55.12,25.05],[55.45,25.0],[56.12,24.82]]}},
{"type":"Feature","properties":{"name":"Abu Dhabi","kind":"city"},"geometry":{"type":"Point","coordinates":[54.3773,24.4539]}},{"type":"Feature","properties":{"name":"Dubai","kind":"city"},"geometry":{"type":"Point","coordinates":[55.2708,25.2048]}},{"type":"Feature","properties":{"name":"Sharjah","kind":"emirate"},"geometry":{"type":"Point","coordinates":[55.4033,25.3463]}},{"type":"Feature","properties":{"name":"Ajman","kind":"emirate"},"geometry":{"type":"Point","coordinates":[55.5136,25.4052]}},{"type":"Feature","properties":{"name":"Umm Al Quwain","kind":"emirate"},"geometry":{"type":"Point","coordinates":[55.5552,25.5647]}},{"type":"Feature","properties":{"name":"Ras Al Khaimah","kind":"emirate"},"geometry":{"type":"Point","coordinates":[55.9432,25.7895]}},{"type":"Feature","properties":{"name":"Fujairah","kind":"emirate"},"geometry":{"type":"Point","coordinates":[56.3265,25.1288]}},{"type":"Feature","properties":{"name":"Al Ain","kind":"city"},"geometry":{"type":"Point","coordinates":[55.7606,24.1302]}},{"type":"Feature","properties":{"name":"Jebel Ali Port","kind":"port"},"geometry":{"type":"Point","coordinates":[55.0273,24.9857]}},{"type":"Feature","properties":{"name":"Khalifa Port / KEZAD","kind":"port"},"geometry":{"type":"Point","coordinates":[54.64,24.81]}},{"type":"Feature","properties":{"name":"Fujairah Port","kind":"port"},"geometry":{"type":"Point","coordinates":[56.36,25.17]}},{"type":"Feature","properties":{"name":"Hamriyah Port","kind":"port"},"geometry":{"type":"Point","coordinates":[55.47,25.46]}}
]}
